[{"OBJECT_NAME":"ONEWEB-0714","OBJECT_ID":"2022-166AR","EPOCH":"2026-01-20T04:30:03.067200","MEAN_MOTION":13.21828304,"ECCENTRICITY":0.0001663,"INCLINATION":87.9215,"RA_OF_ASC_NODE":273.5069,"ARG_OF_PERICENTER":70.2446,"MEAN_ANOMALY":289.8867,"EPHEMERIS_TYPE":0,"CLASSIFICATION_TYPE":"U","NORAD_CAT_ID":54681,"ELEMENT_SET_NO":999,"REV_AT_EPOCH":15198,"BSTAR":0.00022793757,"MEAN_MOTION_DOT":1.07e-6,"MEAN_MOTION_DDOT":0},{"OBJECT_NAME":"ONEWEB-0532","OBJECT_ID":"2023-004A","EPOCH":"2026-01-20T06:16:38.566272","MEAN_MOTION":13.17650838,"ECCENTRICITY":0.00021741,"INCLINATION":87.9095,"RA_OF_ASC_NODE":35.2595,"ARG_OF_PERICENTER":97.9444,"MEAN_ANOMALY":262.1934,"EPHEMERIS_TYPE":0,"CLASSIFICATION_TYPE":"U","NORAD_CAT_ID":55140,"ELEMENT_SET_NO":999,"REV_AT_EPOCH":14810,"BSTAR":0.00010089332,"MEAN_MOTION_DOT":5.2e-7,"MEAN_MOTION_DDOT":0},{"OBJECT_NAME":"ONEWEB-0533","OBJECT_ID":"2023-004B","EPOCH":"2026-01-20T06:03:23.273280","MEAN_MOTION":13.12442732,"ECCENTRICITY":0.00019548,"INCLINATION":87.8934,"RA_OF_ASC_NODE":20.0373,"ARG_OF_PERICENTER":83.9779,"MEAN_ANOMALY":276.1572,"EPHEMERIS_TYPE":0,"CLASSIFICATION_TYPE":"U","NORAD_CAT_ID":55141,"ELEMENT_SET_NO":999,"REV_AT_EPOCH":14865,"BSTAR":-0.0010612762,"MEAN_MOTION_DOT":-3.69e-6,"MEAN_MOTION_DDOT":0},{"OBJECT_NAME":"ONEWEB-0541","OBJECT_ID":"2023-004C","EPOCH":"2026-01-20T00:20:06.581184","MEAN_MOTION":13.11415811,"ECCENTRICITY":0.00017852,"INCLINATION":87.8822,"RA_OF_ASC_NODE":50.5439,"ARG_OF_PERICENTER":99.4325,"MEAN_ANOMALY":260.7005,"EPHEMERIS_TYPE":0,"CLASSIFICATION_TYPE":"U","NORAD_CAT_ID":55142,"ELEMENT_SET_NO":999,"REV_AT_EPOCH":14652,"BSTAR":-0.00033285994,"MEAN_MOTION_DOT":-1.05e-6,"MEAN_MOTION_DDOT":0},{"OBJECT_NAME":"ONEWEB-0543","OBJECT_ID":"2023-004D","EPOCH":"2026-01-20T04:54:42.053760","MEAN_MOTION":13.18685891,"ECCENTRICITY":0.00016361,"INCLINATION":87.9174,"RA_OF_ASC_NODE":4.868,"ARG_OF_PERICENTER":77.3593,"MEAN_ANOMALY":282.7722,"EPHEMERIS_TYPE":0,"CLASSIFICATION_TYPE":"U","NORAD_CAT_ID":55143,"ELEMENT_SET_NO":999,"REV_AT_EPOCH":15019,"BSTAR":0.00025583136,"MEAN_MOTION_DOT":1.14e-6,"MEAN_MOTION_DDOT":0},{"OBJECT_NAME":"ONEWEB-0544","OBJECT_ID":"2023-004E","EPOCH":"2026-01-20T04:45:11.615904","MEAN_MOTION":13.1868771,"ECCENTRICITY":0.00015366,"INCLINATION":87.9178,"RA_OF_ASC_NODE":4.8619,"ARG_OF_PERICENTER":88.9629,"MEAN_ANOMALY":271.168,"EPHEMERIS_TYPE":0,"CLASSIFICATION_TYPE":"U","NORAD_CAT_ID":55144,"ELEMENT_SET_NO":999,"REV_AT_EPOCH":15019,"BSTAR":-8.0931586e-5,"MEAN_MOTION_DOT":-1.9e-7,"MEAN_MOTION_DDOT":0},{"OBJECT_NAME":"ONEWEB-0560","OBJECT_ID":"2023-004F","EPOCH":"2026-01-20T04:35:42.064512","MEAN_MOTION":13.18686234,"ECCENTRICITY":0.00015442,"INCLINATION":87.9184,"RA_OF_ASC_NODE":4.8518,"ARG_OF_PERICENTER":86.2003,"MEAN_ANOMALY":273.9306,"EPHEMERIS_TYPE":0,"CLASSIFICATION_TYPE":"U","NORAD_CAT_ID":55145,"ELEMENT_SET_NO":999,"REV_AT_EPOCH":15020,"BSTAR":-6.4530182e-5,"MEAN_MOTION_DOT":-1.3e-7,"MEAN_MOTION_DDOT":0},{"OBJECT_NAME":"ONEWEB-0565","OBJECT_ID":"2023-004G","EPOCH":"2026-01-20T04:26:11.981760","MEAN_MOTION":13.18685842,"ECCENTRICITY":0.00016706,"INCLINATION":87.9172,"RA_OF_ASC_NODE":4.8953,"ARG_OF_PERICENTER":102.2329,"MEAN_ANOMALY":257.899,"EPHEMERIS_TYPE":0,"CLASSIFICATION_TYPE":"U","NORAD_CAT_ID":55146,"ELEMENT_SET_NO":999,"REV_AT_EPOCH":15019,"BSTAR":4.4958366e-5,"MEAN_MOTION_DOT":3.1e-7,"MEAN_MOTION_DDOT":0},{"OBJECT_NAME":"ONEWEB-0567","OBJECT_ID":"2023-004H","EPOCH":"2026-01-20T06:05:57.488640","MEAN_MOTION":13.18685661,"ECCENTRICITY":0.00015079,"INCLINATION":87.9182,"RA_OF_ASC_NODE":4.8515,"ARG_OF_PERICENTER":96.6575,"MEAN_ANOMALY":263.4729,"EPHEMERIS_TYPE":0,"CLASSIFICATION_TYPE":"U","NORAD_CAT_ID":55147,"ELEMENT_SET_NO":999,"REV_AT_EPOCH":15020,"BSTAR":-5.9610842e-5,"MEAN_MOTION_DOT":-1.1e-7,"MEAN_MOTION_DDOT":0},{"OBJECT_NAME":"ONEWEB-0569","OBJECT_ID":"2023-004J","EPOCH":"2026-01-20T07:11:40.354368","MEAN_MOTION":13.13469712,"ECCENTRICITY":8.381e-5,"INCLINATION":87.9016,"RA_OF_ASC_NODE":349.5999,"ARG_OF_PERICENTER":94.96,"MEAN_ANOMALY":265.1625,"EPHEMERIS_TYPE":0,"CLASSIFICATION_TYPE":"U","NORAD_CAT_ID":55148,"ELEMENT_SET_NO":999,"REV_AT_EPOCH":15076,"BSTAR":0.00018763734,"MEAN_MOTION_DOT":8.1e-7,"MEAN_MOTION_DDOT":0},{"OBJECT_NAME":"ONEWEB-0570","OBJECT_ID":"2023-004K","EPOCH":"2026-01-20T05:51:41.914368","MEAN_MOTION":13.18687088,"ECCENTRICITY":0.00021354,"INCLINATION":87.9178,"RA_OF_ASC_NODE":4.8527,"ARG_OF_PERICENTER":97.2027,"MEAN_ANOMALY":262.9348,"EPHEMERIS_TYPE":0,"CLASSIFICATION_TYPE":"U","NORAD_CAT_ID":55149,"ELEMENT_SET_NO":999,"REV_AT_EPOCH":15019,"BSTAR":0.00010776442,"MEAN_MOTION_DOT":5.5e-7,"MEAN_MOTION_DDOT":0},{"OBJECT_NAME":"ONEWEB-0571","OBJECT_ID":"2023-004L","EPOCH":"2026-01-20T07:31:28.610976","MEAN_MOTION":13.18686171,"ECCENTRICITY":0.0001381,"INCLINATION":87.9175,"RA_OF_ASC_NODE":4.8377,"ARG_OF_PERICENTER":131.3296,"MEAN_ANOMALY":228.7956,"EPHEMERIS_TYPE":0,"CLASSIFICATION_TYPE":"U","NORAD_CAT_ID":55150,"ELEMENT_SET_NO":999,"REV_AT_EPOCH":15021,"BSTAR":-0.00024843175,"MEAN_MOTION_DOT":-8.5e-7,"MEAN_MOTION_DDOT":0},{"OBJECT_NAME":"ONEWEB-0572","OBJECT_ID":"2023-004M","EPOCH":"2026-01-20T07:00:22.707936","MEAN_MOTION":13.17650969,"ECCENTRICITY":0.00017641,"INCLINATION":87.9087,"RA_OF_ASC_NODE":35.2606,"ARG_OF_PERICENTER":98.2145,"MEAN_ANOMALY":261.9186,"EPHEMERIS_TYPE":0,"CLASSIFICATION_TYPE":"U","NORAD_CAT_ID":55151,"ELEMENT_SET_NO":999,"REV_AT_EPOCH":14800,"BSTAR":5.614941e-6,"MEAN_MOTION_DOT":1.5e-7,"MEAN_MOTION_DDOT":0},{"OBJECT_NAME":"ONEWEB-0573","OBJECT_ID":"2023-004N","EPOCH":"2026-01-20T05:32:41.696160","MEAN_MOTION":13.18686869,"ECCENTRICITY":0.00019011,"INCLINATION":87.9177,"RA_OF_ASC_NODE":4.857,"ARG_OF_PERICENTER":111.5969,"MEAN_ANOMALY":248.5366,"EPHEMERIS_TYPE":0,"CLASSIFICATION_TYPE":"U","NORAD_CAT_ID":55152,"ELEMENT_SET_NO":999,"REV_AT_EPOCH":15019,"BSTAR":6.2518191e-5,"MEAN_MOTION_DOT":3.8e-7,"MEAN_MOTION_DDOT":0},{"OBJECT_NAME":"ONEWEB-0588","OBJECT_ID":"2023-004P","EPOCH":"2026-01-20T05:23:11.899392","MEAN_MOTION":13.18685462,"ECCENTRICITY":0.00020031,"INCLINATION":87.9182,"RA_OF_ASC_NODE":4.8571,"ARG_OF_PERICENTER":98.1528,"MEAN_ANOMALY":261.9832,"EPHEMERIS_TYPE":0,"CLASSIFICATION_TYPE":"U","NORAD_CAT_ID":55153,"ELEMENT_SET_NO":999,"REV_AT_EPOCH":15019,"BSTAR":-0.00014294661,"MEAN_MOTION_DOT":-4.3e-7,"MEAN_MOTION_DDOT":0},{"OBJECT_NAME":"ONEWEB-0598","OBJECT_ID":"2023-004Q","EPOCH":"2026-01-20T03:28:07.423104","MEAN_MOTION":13.11417127,"ECCENTRICITY":0.00013189,"INCLINATION":87.8817,"RA_OF_ASC_NODE":50.5422,"ARG_OF_PERICENTER":109.6496,"MEAN_ANOMALY":250.4774,"EPHEMERIS_TYPE":0,"CLASSIFICATION_TYPE":"U","NORAD_CAT_ID":55154,"ELEMENT_SET_NO":999,"REV_AT_EPOCH":14649,"BSTAR":0.0016924233,"MEAN_MOTION_DOT":6.13e-6,"MEAN_MOTION_DDOT":0},{"OBJECT_NAME":"ONEWEB-0599","OBJECT_ID":"2023-004R","EPOCH":"2026-01-20T07:53:50.008128","MEAN_MOTION":13.17651096,"ECCENTRICITY":0.00015826,"INCLINATION":87.9084,"RA_OF_ASC_NODE":35.2528,"ARG_OF_PERICENTER":90.8353,"MEAN_ANOMALY":269.296,"EPHEMERIS_TYPE":0,"CLASSIFICATION_TYPE":"U","NORAD_CAT_ID":55155,"ELEMENT_SET_NO":999,"REV_AT_EPOCH":14801,"BSTAR":-7.9274659e-5,"MEAN_MOTION_DOT":-1.8e-7,"MEAN_MOTION_DDOT":0}]
