ONEWEB-0714             
1 54681U 22166AR  26020.18753550  .00000107  00000+0  22794-3 0  9999
2 54681  87.9215 273.5069 0001663  70.2446 289.8867 13.21828304151983
ONEWEB-0532             
1 55140U 23004A   26020.26155748  .00000052  00000+0  10089-3 0  9999
2 55140  87.9095  35.2595 0002174  97.9444 262.1934 13.17650838148108
ONEWEB-0533             
1 55141U 23004B   26020.25235270 -.00000369  00000+0 -10613-2 0  9993
2 55141  87.8934  20.0373 0001954  83.9779 276.1572 13.12442732148657
ONEWEB-0541             
1 55142U 23004C   26020.01396506 -.00000105  00000+0 -33286-3 0  9998
2 55142  87.8822  50.5439 0001785  99.4325 260.7005 13.11415811146527
ONEWEB-0543             
1 55143U 23004D   26020.20465340  .00000114  00000+0  25583-3 0  9992
2 55143  87.9174   4.8680 0001636  77.3593 282.7722 13.18685891150198
ONEWEB-0544             
1 55144U 23004E   26020.19805111 -.00000019  00000+0 -80932-4 0  9991
2 55144  87.9178   4.8619 0001536  88.9629 271.1680 13.18687710150199
ONEWEB-0560             
1 55145U 23004F   26020.19145908 -.00000013  00000+0 -64530-4 0  9993
2 55145  87.9184   4.8518 0001544  86.2003 273.9306 13.18686234150208
ONEWEB-0565             
1 55146U 23004G   26020.18486090  .00000031  00000+0  44958-4 0  9993
2 55146  87.9172   4.8953 0001670 102.2329 257.8990 13.18685842150191
ONEWEB-0567             
1 55147U 23004H   26020.25413760 -.00000011  00000+0 -59611-4 0  9998
2 55147  87.9182   4.8515 0001507  96.6575 263.4729 13.18685661150209
ONEWEB-0569             
1 55148U 23004J   26020.29977262  .00000081  00000+0  18764-3 0  9993
2 55148  87.9016 349.5999 0000838  94.9600 265.1625 13.13469712150764
ONEWEB-0570             
1 55149U 23004K   26020.24423512  .00000055  00000+0  10776-3 0  9999
2 55149  87.9178   4.8527 0002135  97.2027 262.9348 13.18687088150190
ONEWEB-0571             
1 55150U 23004L   26020.31352559 -.00000085  00000+0 -24843-3 0  9996
2 55150  87.9175   4.8377 0001381 131.3296 228.7956 13.18686171150212
ONEWEB-0572             
1 55151U 23004M   26020.29192949  .00000015  00000+0  56149-5 0  9996
2 55151  87.9087  35.2606 0001764  98.2145 261.9186 13.17650969148000
ONEWEB-0573             
1 55152U 23004N   26020.23103815  .00000038  00000+0  62518-4 0  9996
2 55152  87.9177   4.8570 0001901 111.5969 248.5366 13.18686869150192
ONEWEB-0588             
1 55153U 23004P   26020.22444328 -.00000043  00000+0 -14295-3 0  9999
2 55153  87.9182   4.8571 0002003  98.1528 261.9832 13.18685462150190
ONEWEB-0598             
1 55154U 23004Q   26020.14453036  .00000613  00000+0  16924-2 0  9998
2 55154  87.8817  50.5422 0001318 109.6496 250.4774 13.11417127146498
ONEWEB-0599             
1 55155U 23004R   26020.32905102 -.00000018  00000+0 -79275-4 0  9996
2 55155  87.9084  35.2528 0001582  90.8353 269.2960 13.17651096148015
